[{"OBJECT_NAME":"STARLINK-5936","OBJECT_ID":"2023-042AB","EPOCH":"2026-03-22T22:00:01.999584","MEAN_MOTION":15.21739231,"ECCENTRICITY":0.00017005,"INCLINATION":42.9994,"RA_OF_ASC_NODE":330.241,"ARG_OF_PERICENTER":254.8382,"MEAN_ANOMALY":37.9563,"EPHEMERIS_TYPE":0,"CLASSIFICATION_TYPE":"U","NORAD_CAT_ID":56011,"ELEMENT_SET_NO":999,"REV_AT_EPOCH":578,"BSTAR":0.0030499409,"MEAN_MOTION_DOT":0.0007089,"MEAN_MOTION_DDOT":0},{"OBJECT_NAME":"STARLINK-5940","OBJECT_ID":"2023-042AC","EPOCH":"2026-03-22T22:00:01.999584","MEAN_MOTION":15.25001277,"ECCENTRICITY":0.00014373,"INCLINATION":42.9995,"RA_OF_ASC_NODE":329.8934,"ARG_OF_PERICENTER":287.1496,"MEAN_ANOMALY":152.1137,"EPHEMERIS_TYPE":0,"CLASSIFICATION_TYPE":"U","NORAD_CAT_ID":56012,"ELEMENT_SET_NO":999,"REV_AT_EPOCH":578,"BSTAR":0.0022089975,"MEAN_MOTION_DOT":0.00056401,"MEAN_MOTION_DDOT":0},{"OBJECT_NAME":"STARLINK-5941","OBJECT_ID":"2023-042AD","EPOCH":"2026-03-21T01:00:43.103520","MEAN_MOTION":15.02683847,"ECCENTRICITY":0.000102,"INCLINATION":43.0008,"RA_OF_ASC_NODE":353.9376,"ARG_OF_PERICENTER":281.5111,"MEAN_ANOMALY":78.5617,"EPHEMERIS_TYPE":0,"CLASSIFICATION_TYPE":"U","NORAD_CAT_ID":56013,"ELEMENT_SET_NO":999,"REV_AT_EPOCH":16462,"BSTAR":0.0012995649,"MEAN_MOTION_DOT":0.00017464,"MEAN_MOTION_DDOT":0},{"OBJECT_NAME":"STARLINK-5942","OBJECT_ID":"2023-042AE","EPOCH":"2026-03-22T22:00:01.999584","MEAN_MOTION":15.22158655,"ECCENTRICITY":0.00017766,"INCLINATION":42.9996,"RA_OF_ASC_NODE":330.0966,"ARG_OF_PERICENTER":256.5476,"MEAN_ANOMALY":97.1312,"EPHEMERIS_TYPE":0,"CLASSIFICATION_TYPE":"U","NORAD_CAT_ID":56014,"ELEMENT_SET_NO":999,"REV_AT_EPOCH":578,"BSTAR":0.0027154361,"MEAN_MOTION_DOT":0.00063813,"MEAN_MOTION_DDOT":0},{"OBJECT_NAME":"STARLINK-5939","OBJECT_ID":"2023-042AF","EPOCH":"2026-03-22T22:00:01.999584","MEAN_MOTION":15.23672044,"ECCENTRICITY":0.00020509,"INCLINATION":42.9991,"RA_OF_ASC_NODE":329.9833,"ARG_OF_PERICENTER":268.2182,"MEAN_ANOMALY":134.0168,"EPHEMERIS_TYPE":0,"CLASSIFICATION_TYPE":"U","NORAD_CAT_ID":56015,"ELEMENT_SET_NO":999,"REV_AT_EPOCH":578,"BSTAR":0.0027266296,"MEAN_MOTION_DOT":0.00067055,"MEAN_MOTION_DDOT":0},{"OBJECT_NAME":"STARLINK-5943","OBJECT_ID":"2023-042AG","EPOCH":"2026-03-22T22:00:01.999584","MEAN_MOTION":15.19788952,"ECCENTRICITY":0.00014675,"INCLINATION":42.9991,"RA_OF_ASC_NODE":330.3324,"ARG_OF_PERICENTER":238.0569,"MEAN_ANOMALY":14.15,"EPHEMERIS_TYPE":0,"CLASSIFICATION_TYPE":"U","NORAD_CAT_ID":56016,"ELEMENT_SET_NO":999,"REV_AT_EPOCH":567,"BSTAR":0.0031308559,"MEAN_MOTION_DOT":0.00068709,"MEAN_MOTION_DDOT":0},{"OBJECT_NAME":"STARLINK-5934","OBJECT_ID":"2023-042AH","EPOCH":"2026-03-22T22:00:01.999584","MEAN_MOTION":15.20597934,"ECCENTRICITY":0.00014889,"INCLINATION":42.9986,"RA_OF_ASC_NODE":330.381,"ARG_OF_PERICENTER":231.3317,"MEAN_ANOMALY":0.522,"EPHEMERIS_TYPE":0,"CLASSIFICATION_TYPE":"U","NORAD_CAT_ID":56017,"ELEMENT_SET_NO":999,"REV_AT_EPOCH":557,"BSTAR":0.0028933557,"MEAN_MOTION_DOT":0.00064965,"MEAN_MOTION_DDOT":0},{"OBJECT_NAME":"STARLINK-5945","OBJECT_ID":"2023-042AJ","EPOCH":"2026-03-22T22:00:01.999584","MEAN_MOTION":15.18499674,"ECCENTRICITY":8.443e-5,"INCLINATION":42.9987,"RA_OF_ASC_NODE":330.4093,"ARG_OF_PERICENTER":285.7141,"MEAN_ANOMALY":291.136,"EPHEMERIS_TYPE":0,"CLASSIFICATION_TYPE":"U","NORAD_CAT_ID":56018,"ELEMENT_SET_NO":999,"REV_AT_EPOCH":557,"BSTAR":0.0016142309,"MEAN_MOTION_DOT":0.00033842,"MEAN_MOTION_DDOT":0},{"OBJECT_NAME":"STARLINK-5949","OBJECT_ID":"2023-042AK","EPOCH":"2026-03-22T22:00:01.999584","MEAN_MOTION":15.2118317,"ECCENTRICITY":0.00013671,"INCLINATION":42.9989,"RA_OF_ASC_NODE":330.3147,"ARG_OF_PERICENTER":248.8679,"MEAN_ANOMALY":11.6989,"EPHEMERIS_TYPE":0,"CLASSIFICATION_TYPE":"U","NORAD_CAT_ID":56019,"ELEMENT_SET_NO":999,"REV_AT_EPOCH":578,"BSTAR":0.0031085513,"MEAN_MOTION_DOT":0.00071085,"MEAN_MOTION_DDOT":0},{"OBJECT_NAME":"STARLINK-5912","OBJECT_ID":"2023-042AL","EPOCH":"2026-03-22T22:00:01.999584","MEAN_MOTION":15.20207644,"ECCENTRICITY":0.00018675,"INCLINATION":42.999,"RA_OF_ASC_NODE":330.2488,"ARG_OF_PERICENTER":252.9879,"MEAN_ANOMALY":35.5689,"EPHEMERIS_TYPE":0,"CLASSIFICATION_TYPE":"U","NORAD_CAT_ID":56020,"ELEMENT_SET_NO":999,"REV_AT_EPOCH":572,"BSTAR":0.0029706456,"MEAN_MOTION_DOT":0.00065958,"MEAN_MOTION_DDOT":0},{"OBJECT_NAME":"STARLINK-5907","OBJECT_ID":"2023-042AM","EPOCH":"2026-03-22T22:00:01.999584","MEAN_MOTION":15.19821008,"ECCENTRICITY":0.00015948,"INCLINATION":42.9992,"RA_OF_ASC_NODE":330.3462,"ARG_OF_PERICENTER":231.4491,"MEAN_ANOMALY":15.9864,"EPHEMERIS_TYPE":0,"CLASSIFICATION_TYPE":"U","NORAD_CAT_ID":56021,"ELEMENT_SET_NO":999,"REV_AT_EPOCH":572,"BSTAR":0.0031187152,"MEAN_MOTION_DOT":0.00068504,"MEAN_MOTION_DDOT":0},{"OBJECT_NAME":"STARLINK-5783","OBJECT_ID":"2023-042AN","EPOCH":"2026-03-22T22:00:01.999584","MEAN_MOTION":15.21790396,"ECCENTRICITY":8.472e-5,"INCLINATION":43.0003,"RA_OF_ASC_NODE":329.7822,"ARG_OF_PERICENTER":310.2206,"MEAN_ANOMALY":174.3641,"EPHEMERIS_TYPE":0,"CLASSIFICATION_TYPE":"U","NORAD_CAT_ID":56022,"ELEMENT_SET_NO":999,"REV_AT_EPOCH":577,"BSTAR":0.0030087817,"MEAN_MOTION_DOT":0.00070026,"MEAN_MOTION_DDOT":0},{"OBJECT_NAME":"STARLINK-5771","OBJECT_ID":"2023-042AP","EPOCH":"2026-03-22T22:00:01.999584","MEAN_MOTION":15.18604627,"ECCENTRICITY":0.00012356,"INCLINATION":42.9991,"RA_OF_ASC_NODE":330.396,"ARG_OF_PERICENTER":240.3111,"MEAN_ANOMALY":344.4443,"EPHEMERIS_TYPE":0,"CLASSIFICATION_TYPE":"U","NORAD_CAT_ID":56023,"ELEMENT_SET_NO":999,"REV_AT_EPOCH":567,"BSTAR":0.0030452325,"MEAN_MOTION_DOT":0.00064523,"MEAN_MOTION_DDOT":0},{"OBJECT_NAME":"STARLINK-5772","OBJECT_ID":"2023-042AQ","EPOCH":"2026-03-22T22:00:01.999584","MEAN_MOTION":15.21210017,"ECCENTRICITY":0.00020024,"INCLINATION":42.9991,"RA_OF_ASC_NODE":330.0922,"ARG_OF_PERICENTER":263.2165,"MEAN_ANOMALY":88.6682,"EPHEMERIS_TYPE":0,"CLASSIFICATION_TYPE":"U","NORAD_CAT_ID":56024,"ELEMENT_SET_NO":999,"REV_AT_EPOCH":577,"BSTAR":0.045369759,"MEAN_MOTION_DOT":0.01118268,"MEAN_MOTION_DDOT":0},{"OBJECT_NAME":"STARLINK-5766","OBJECT_ID":"2023-042AR","EPOCH":"2026-03-22T22:00:01.999584","MEAN_MOTION":15.20014754,"ECCENTRICITY":6.446e-5,"INCLINATION":43.0002,"RA_OF_ASC_NODE":330.6425,"ARG_OF_PERICENTER":300.3836,"MEAN_ANOMALY":178.2324,"EPHEMERIS_TYPE":0,"CLASSIFICATION_TYPE":"U","NORAD_CAT_ID":56025,"ELEMENT_SET_NO":999,"REV_AT_EPOCH":578,"BSTAR":0.003026788,"MEAN_MOTION_DOT":0.00066839,"MEAN_MOTION_DDOT":0},{"OBJECT_NAME":"STARLINK-5770","OBJECT_ID":"2023-042AS","EPOCH":"2026-03-22T22:00:01.999584","MEAN_MOTION":15.20873395,"ECCENTRICITY":7.814e-5,"INCLINATION":43.0002,"RA_OF_ASC_NODE":329.7706,"ARG_OF_PERICENTER":274.4969,"MEAN_ANOMALY":214.6826,"EPHEMERIS_TYPE":0,"CLASSIFICATION_TYPE":"U","NORAD_CAT_ID":56026,"ELEMENT_SET_NO":999,"REV_AT_EPOCH":577,"BSTAR":0.0019192204,"MEAN_MOTION_DOT":0.00043229,"MEAN_MOTION_DDOT":0}]
