STARLINK-5936           
1 56011U 23042AB  26081.91668981  .00070890  00000+0  30499-2 0  9999
2 56011  42.9994 330.2410 0001700 254.8382  37.9563 15.21739231  5782
STARLINK-5940           
1 56012U 23042AC  26081.91668981  .00056401  00000+0  22090-2 0  9990
2 56012  42.9995 329.8934 0001437 287.1496 152.1137 15.25001277  5784
STARLINK-5941           
1 56013U 23042AD  26080.04216555  .00017464  00000+0  12996-2 0  9990
2 56013  43.0008 353.9376 0001020 281.5111  78.5617 15.02683847164627
STARLINK-5942           
1 56014U 23042AE  26081.91668981  .00063813  00000+0  27154-2 0  9993
2 56014  42.9996 330.0966 0001776 256.5476  97.1312 15.22158655  5783
STARLINK-5939           
1 56015U 23042AF  26081.91668981  .00067055  00000+0  27266-2 0  9990
2 56015  42.9991 329.9833 0002050 268.2182 134.0168 15.23672044  5783
STARLINK-5943           
1 56016U 23042AG  26081.91668981  .00068709  00000+0  31309-2 0  9991
2 56016  42.9991 330.3324 0001467 238.0569  14.1500 15.19788952  5677
STARLINK-5934           
1 56017U 23042AH  26081.91668981  .00064965  00000+0  28934-2 0  9992
2 56017  42.9986 330.3810 0001488 231.3317   0.5220 15.20597934  5579
STARLINK-5945           
1 56018U 23042AJ  26081.91668981  .00033842  00000+0  16142-2 0  9991
2 56018  42.9987 330.4093 0000844 285.7141 291.1360 15.18499674  5570
STARLINK-5949           
1 56019U 23042AK  26081.91668981  .00071085  00000+0  31086-2 0  9997
2 56019  42.9989 330.3147 0001367 248.8679  11.6989 15.21183170  5789
STARLINK-5912           
1 56020U 23042AL  26081.91668981  .00065958  00000+0  29706-2 0  9997
2 56020  42.9990 330.2488 0001867 252.9879  35.5689 15.20207644  5721
STARLINK-5907           
1 56021U 23042AM  26081.91668981  .00068504  00000+0  31187-2 0  9994
2 56021  42.9992 330.3462 0001594 231.4491  15.9864 15.19821008  5727
STARLINK-5783           
1 56022U 23042AN  26081.91668981  .00070026  00000+0  30088-2 0  9996
2 56022  43.0003 329.7822 0000847 310.2206 174.3641 15.21790396  5771
STARLINK-5771           
1 56023U 23042AP  26081.91668981  .00064523  00000+0  30452-2 0  9997
2 56023  42.9991 330.3960 0001235 240.3111 344.4443 15.18604627  5673
STARLINK-5772           
1 56024U 23042AQ  26081.91668981  .01118268  00000+0  45370-1 0  9999
2 56024  42.9991 330.0922 0002002 263.2165  88.6682 15.21210017  5778
STARLINK-5766           
1 56025U 23042AR  26081.91668981  .00066839  00000+0  30268-2 0  9996
2 56025  43.0002 330.6425 0000644 300.3836 178.2324 15.20014754  5785
STARLINK-5770           
1 56026U 23042AS  26081.91668981  .00043229  00000+0  19192-2 0  9998
2 56026  43.0002 329.7706 0000781 274.4969 214.6826 15.20873395  5772
